ORBCOMM FM33            
1 25983U 99065D   26018.39803277  .00000893  00000+0  32163-3 0  9999
2 25983  45.0291  55.3113 0006171  60.3809 299.7655 14.40640633367098
ORBCOMM FM36            
1 25984U 99065E   26018.77815982  .00000894  00000+0  33416-3 0  9991
2 25984  45.0381 148.6903 0002783 276.5428  83.5104 14.38813510365465
ORBCOMM FM35            
1 25985U 99065F   26018.77838620  .00000860  00000+0  33042-3 0  9994
2 25985  45.0383 155.4886 0002529  48.2462 311.8603 14.37716561365800
ORBCOMM FM34            
1 25986U 99065G   26018.81594233  .00000771  00000+0  30136-3 0  9991
2 25986  45.0379 155.7935 0002727 334.4127  25.6586 14.37651331365928
ORBCOMM FM38            
1 33060U 08031A   26018.65105820  .00001667  00000+0  23233-3 0  9993
2 33060  48.4418   7.6115 0005142 256.1039 103.9305 14.82450080946700
ORBCOMM FM41            
1 33061U 08031B   26018.99235789  .00001566  00000+0  22224-3 0  9996
2 33061  48.4452  14.5316 0004301 243.4270 146.0123 14.81996173946232
ORBCOMM FM29            
1 33062U 08031C   26018.44236135  .00001583  00000+0  22359-3 0  9991
2 33062  48.4402  24.6662 0005953 238.7148 274.9151 14.82154170946066
ORBCOMM FM39            
1 33063U 08031D   26018.46124244  .00001335  00000+0  19986-3 0  9998
2 33063  48.4411  51.3079 0006654 208.5120 151.5432 14.80571231945688
